KUIPER-00035            
1 63748U 25088AA  25197.91668981 -.00025053  00000+0 -13557-2 0  9992
2 63748  51.8791  80.9792 0004195  60.2284 330.2800 15.13869765 12535
KUIPER-00037            
1 63749U 25088AB  25197.94111883 -.00209672  00000+0 -11213-1 0  9997
2 63749  51.8811  80.3490 0006007 358.7088   1.3873 15.15552069 13332
KUIPER-00038            
1 63750U 25088AC  25197.91085943  .00011142  00000+0  30807-3 0  9996
2 63750  51.8706  76.5204 0004912  43.7131 316.4244 15.37516131 12380
KUIPER-00039            
1 64500U 25134A   25197.76527587  .00015393  00000+0  45998-3 0  9999
2 64500  51.8673 218.7015 0007457 196.3442 163.7304 15.34749797  4827
KUIPER-00040            
1 64501U 25134B   25197.77883877  .00013937  00000+0  42903-3 0  9993
2 64501  51.8662 218.7830 0010728 209.3998 150.6384 15.33867973  4826
KUIPER-00041            
1 64502U 25134C   25197.91668981  .00056922  00000+0  19009-2 0  9998
2 64502  51.8705 218.0780 0009248 206.7378 209.1305 15.30447691  1491
KUIPER-00042            
1 64503U 25134D   25197.76988731  .00014209  00000+0  42907-3 0  9996
2 64503  51.8658 218.7257 0008647 197.7420 162.3265 15.34480553  4827
KUIPER-00043            
1 64504U 25134E   25197.76639787  .00013792  00000+0  41443-3 0  9991
2 64504  51.8691 218.7093 0007909 192.1810 167.8985 15.34667297  4826
